{"fetched_at":"2026-04-16T17:13:58Z","count":4884,"tles":[{"name":"TRANSPORTER-16 OBJECT CP","line1":"1 68501U 26067CP  26105.67227353  .00003807  00000+0  38844-3 0  9997","line2":"2 68501  97.7588  64.9041 0002003 211.8179 148.2918 14.91227302  2404","category":"Other"}]}