{
  "norad_id": 68501,
  "name": "TRANSPORTER-16 OBJECT CP",
  "history": [
    {
      "epoch": "2026-04-15T16:08:04.432128Z",
      "apogee_km": 595.5047709205573,
      "perigee_km": 592.7102953116846,
      "latitude_deg": -6.090576170325377e-05,
      "longitude_deg": -20.945337745100815,
      "height_km": 598.337520570138,
      "semi_major_axis_km": 6972.244533116121,
      "eccentricity": 0.0002004,
      "inclination_deg": 97.7588,
      "raan_deg": 64.9041,
      "arg_perigee_deg": 211.8179,
      "mean_anomaly_deg": 148.2918,
      "mean_motion_rev_day": 14.91227302
    }
  ]
}